SPAWAR-CAL-R            
1 43776U 18099U   26067.65115975  .00003570  00000+0  25336-3 0  9990
2 43776  97.4524 111.5817 0019701 348.9052  11.1737 15.05212097396878
STARLINK-3874           
1 52365U 22045AL  26068.52793145 -.00000377  00000+0 -56195-5 0  9991
2 52365  53.2159 189.8483 0001337  81.4081 278.7063 15.08840357215894
